{
  "type": "FeatureCollection",
  "features": [
    {
      "type": "Feature",
      "properties": {
        "norad_id": 35442,
        "name": "COSMOS 2251 DEB",
        "group": "cosmos-2251-debris",
        "lat": -58.6096382563645,
        "lon": 79.40157081989061,
        "alt_km": 625.7413160589313,
        "timestamp": "2025-12-08T13:49:32.190348+00:00",
        "meta_object_name": "COSMOS 2251 DEB",
        "meta_object_id": "1993-036AKL",
        "meta_epoch": "2025-12-07T15:27:31.650048",
        "meta_mean_motion": 14.84119587,
        "meta_eccentricity": 0.00041145,
        "meta_inclination": 74.0265,
        "meta_ra_of_asc_node": 109.2474,
        "meta_arg_of_pericenter": 111.4342,
        "meta_mean_anomaly": 248.7276,
        "meta_ephemeris_type": 0,
        "meta_classification_type": "U",
        "meta_norad_cat_id": 35442,
        "meta_element_set_no": 999,
        "meta_rev_at_epoch": 87277,
        "meta_bstar": 0.0046413266,
        "meta_mean_motion_dot": 0.00038955,
        "meta_mean_motion_ddot": 0,
        "tle_line1": "1 35442U 93036AKL 25341.64411632  .00038955  00000+0  46413-2 0  9990",
        "tle_line2": "2 35442  74.0265 109.2474 0004114 111.4342 248.7276 14.84119587872772"
      },
      "geometry": {
        "type": "Point",
        "coordinates": [
          79.40157081989061,
          -58.6096382563645
        ]
      }
    },
    {
      "type": "Feature",
      "properties": {
        "norad_id": 35443,
        "name": "COSMOS 2251 DEB",
        "group": "cosmos-2251-debris",
        "lat": 29.168201706961458,
        "lon": 150.8119322811631,
        "alt_km": 531.1817015651413,
        "timestamp": "2025-12-08T13:49:32.190359+00:00",
        "meta_object_name": "COSMOS 2251 DEB",
        "meta_object_id": "1993-036AKM",
        "meta_epoch": "2025-12-08T06:44:44.274336",
        "meta_mean_motion": 14.96147372,
        "meta_eccentricity": 0.00733753,
        "meta_inclination": 73.988,
        "meta_ra_of_asc_node": 340.6328,
        "meta_arg_of_pericenter": 123.8306,
        "meta_mean_anomaly": 236.9892,
        "meta_ephemeris_type": 0,
        "meta_classification_type": "U",
        "meta_norad_cat_id": 35443,
        "meta_element_set_no": 999,
        "meta_rev_at_epoch": 86811,
        "meta_bstar": 0.0035457848,
        "meta_mean_motion_dot": 0.00042371,
        "meta_mean_motion_ddot": 0,
        "tle_line1": "1 35443U 93036AKM 25342.28106799  .00042371  00000+0  35458-2 0  9991",
        "tle_line2": "2 35443  73.9880 340.6328 0073375 123.8306 236.9892 14.96147372868117"
      },
      "geometry": {
        "type": "Point",
        "coordinates": [
          150.8119322811631,
          29.168201706961458
        ]
      }
    },
    {
      "type": "Feature",
      "properties": {
        "norad_id": 35445,
        "name": "COSMOS 2251 DEB",
        "group": "cosmos-2251-debris",
        "lat": 21.04691595866421,
        "lon": -45.734939334844405,
        "alt_km": 597.2200286710213,
        "timestamp": "2025-12-08T13:49:32.190369+00:00",
        "meta_object_name": "COSMOS 2251 DEB",
        "meta_object_id": "1993-036AKP",
        "meta_epoch": "2025-12-08T05:29:59.522496",
        "meta_mean_motion": 14.58996884,
        "meta_eccentricity": 0.01436419,
        "meta_inclination": 74.0379,
        "meta_ra_of_asc_node": 308.6026,
        "meta_arg_of_pericenter": 36.7325,
        "meta_mean_anomaly": 324.3579,
        "meta_ephemeris_type": 0,
        "meta_classification_type": "U",
        "meta_norad_cat_id": 35445,
        "meta_element_set_no": 999,
        "meta_rev_at_epoch": 87263,
        "meta_bstar": 0.0025418237,
        "meta_mean_motion_dot": 0.00013775,
        "meta_mean_motion_ddot": 0,
        "tle_line1": "1 35445U 93036AKP 25342.22916114  .00013775  00000+0  25418-2 0  9998",
        "tle_line2": "2 35445  74.0379 308.6026 0143641  36.7325 324.3579 14.58996884872634"
      },
      "geometry": {
        "type": "Point",
        "coordinates": [
          -45.734939334844405,
          21.04691595866421
        ]
      }
    },
    {
      "type": "Feature",
      "properties": {
        "norad_id": 35446,
        "name": "COSMOS 2251 DEB",
        "group": "cosmos-2251-debris",
        "lat": 51.10892173999732,
        "lon": 125.28635696674291,
        "alt_km": 665.1350741244169,
        "timestamp": "2025-12-08T13:49:32.190379+00:00",
        "meta_object_name": "COSMOS 2251 DEB",
        "meta_object_id": "1993-036AKQ",
        "meta_epoch": "2025-12-05T17:34:52.262112",
        "meta_mean_motion": 14.54618421,
        "meta_eccentricity": 0.00744002,
        "meta_inclination": 74.0466,
        "meta_ra_of_asc_node": 331.4309,
        "meta_arg_of_pericenter": 91.6694,
        "meta_mean_anomaly": 269.2992,
        "meta_ephemeris_type": 0,
        "meta_classification_type": "U",
        "meta_norad_cat_id": 35446,
        "meta_element_set_no": 999,
        "meta_rev_at_epoch": 87906,
        "meta_bstar": 0.00018901942,
        "meta_mean_motion_dot": 8.08e-06,
        "meta_mean_motion_ddot": 0,
        "tle_line1": "1 35446U 93036AKQ 25339.73254933  .00000808  00000+0  18902-3 0  9999",
        "tle_line2": "2 35446  74.0466 331.4309 0074400  91.6694 269.2992 14.54618421879069"
      },
      "geometry": {
        "type": "Point",
        "coordinates": [
          125.28635696674291,
          51.10892173999732
        ]
      }
    },
    {
      "type": "Feature",
      "properties": {
        "norad_id": 35448,
        "name": "COSMOS 2251 DEB",
        "group": "cosmos-2251-debris",
        "lat": -9.669739401464723,
        "lon": 94.62576253577917,
        "alt_km": 713.2397780448928,
        "timestamp": "2025-12-08T13:49:32.190390+00:00",
        "meta_object_name": "COSMOS 2251 DEB",
        "meta_object_id": "1993-036AKS",
        "meta_epoch": "2025-12-07T14:45:24.921792",
        "meta_mean_motion": 14.54192241,
        "meta_eccentricity": 0.00114068,
        "meta_inclination": 73.9036,
        "meta_ra_of_asc_node": 99.277,
        "meta_arg_of_pericenter": 279.9648,
        "meta_mean_anomaly": 80.0226,
        "meta_ephemeris_type": 0,
        "meta_classification_type": "U",
        "meta_norad_cat_id": 35448,
        "meta_element_set_no": 999,
        "meta_rev_at_epoch": 87260,
        "meta_bstar": 0.0019807158,
        "meta_mean_motion_dot": 8.373e-05,
        "meta_mean_motion_ddot": 0,
        "tle_line1": "1 35448U 93036AKS 25341.61487178  .00008373  00000+0  19807-2 0  9999",
        "tle_line2": "2 35448  73.9036  99.2770 0011406 279.9648  80.0226 14.54192241872609"
      },
      "geometry": {
        "type": "Point",
        "coordinates": [
          94.62576253577917,
          -9.669739401464723
        ]
      }
    },
    {
      "type": "Feature",
      "properties": {
        "norad_id": 35451,
        "name": "COSMOS 2251 DEB",
        "group": "cosmos-2251-debris",
        "lat": -54.48896464592191,
        "lon": -44.51732294046762,
        "alt_km": 481.5838315674555,
        "timestamp": "2025-12-08T13:49:32.190400+00:00",
        "meta_object_name": "COSMOS 2251 DEB",
        "meta_object_id": "1993-036AKV",
        "meta_epoch": "2025-12-07T08:37:59.975616",
        "meta_mean_motion": 15.34796535,
        "meta_eccentricity": 0.00403951,
        "meta_inclination": 73.9319,
        "meta_ra_of_asc_node": 114.2824,
        "meta_arg_of_pericenter": 1.3227,
        "meta_mean_anomaly": 358.8076,
        "meta_ephemeris_type": 0,
        "meta_classification_type": "U",
        "meta_norad_cat_id": 35451,
        "meta_element_set_no": 999,
        "meta_rev_at_epoch": 67323,
        "meta_bstar": 0.0021590375,
        "meta_mean_motion_dot": 0.00075507,
        "meta_mean_motion_ddot": 0,
        "tle_line1": "1 35451U 93036AKV 25341.35972194  .00075507  00000+0  21590-2 0  9996",
        "tle_line2": "2 35451  73.9319 114.2824 0040395   1.3227 358.8076 15.34796535673236"
      },
      "geometry": {
        "type": "Point",
        "coordinates": [
          -44.51732294046762,
          -54.48896464592191
        ]
      }
    },
    {
      "type": "Feature",
      "properties": {
        "norad_id": 35453,
        "name": "COSMOS 2251 DEB",
        "group": "cosmos-2251-debris",
        "lat": -66.70953978838968,
        "lon": -13.70685744837878,
        "alt_km": 799.2270136000661,
        "timestamp": "2025-12-08T13:49:32.190410+00:00",
        "meta_object_name": "COSMOS 2251 DEB",
        "meta_object_id": "1993-036AKX",
        "meta_epoch": "2025-12-02T12:53:58.122528",
        "meta_mean_motion": 14.3790654,
        "meta_eccentricity": 0.00680216,
        "meta_inclination": 74.0102,
        "meta_ra_of_asc_node": 39.1945,
        "meta_arg_of_pericenter": 175.6131,
        "meta_mean_anomaly": 184.5634,
        "meta_ephemeris_type": 0,
        "meta_classification_type": "U",
        "meta_norad_cat_id": 35453,
        "meta_element_set_no": 999,
        "meta_rev_at_epoch": 86072,
        "meta_bstar": 0.00098540606,
        "meta_mean_motion_dot": 3.03e-05,
        "meta_mean_motion_ddot": 0,
        "tle_line1": "1 35453U 93036AKX 25336.53747827  .00003030  00000+0  98541-3 0  9998",
        "tle_line2": "2 35453  74.0102  39.1945 0068021 175.6131 184.5634 14.37906540860721"
      },
      "geometry": {
        "type": "Point",
        "coordinates": [
          -13.70685744837878,
          -66.70953978838968
        ]
      }
    }
  ]
}